NORAD_CAT_ID,OBJECT_NAME,OBJECT_TYPE,EPOCH,MEAN_MOTION,ECCENTRICITY,INCLINATION,RA_OF_ASC_NODE,ARG_OF_PERICENTER,MEAN_ANOMALY,BSTAR,MEAN_MOTION_DOT,MEAN_MOTION_DDOT,TLE_LINE0,TLE_LINE1,TLE_LINE2,SEMIMAJOR_AXIS,PERIOD,APOGEE,PERIGEE,DECAYED
54010.0,STARLINK-5127,PAYLOAD,2023-08-17 00:17:55,15.08837086,0.0001183,53.2164,84.1123,84.0168,276.0959,4.0593e-05,3.58e-06,0.0,0 STARLINK-5127,1 54010U 22125AY  23229.01244515  .00000358  00000-0  40593-4 0  9993,2 54010  53.2164  84.1123 0001183  84.0168 276.0959 15.08837086 48402,6917.889,95.438,540.573,538.936,0.0
54010.0,STARLINK-5127,PAYLOAD,2023-08-18 00:08:41,15.08845274,0.0001325,53.2182,79.6516,88.9136,271.2008,0.00014416,2.007e-05,0.0,0 STARLINK-5127,1 54010U 22125AY  23230.00603683  .00002007  00000-0  14416-3 0  9996,2 54010  53.2182  79.6516 0001325  88.9136 271.2008 15.08845274 48559,6917.864,95.437,540.646,538.813,0.0
54010.0,STARLINK-5127,PAYLOAD,2023-08-18 14:27:10,15.08833999,9.89e-05,53.2167,76.9769,91.3792,268.7314,-6.9961e-06,-3.99e-06,0.0,0 STARLINK-5127,1 54010U 22125AY  23230.60220930 -.00000399  00000-0 -69961-5 0  9993,2 54010  53.2167  76.9769 0000989  91.3792 268.7314 15.08833999 48645,6917.899,95.438,540.448,539.08,0.0
54010.0,STARLINK-5127,PAYLOAD,2023-08-18 23:59:29,15.08841165,0.0001071,53.2158,75.1919,93.0825,267.029,5.897e-05,6.51e-06,0.0,0 STARLINK-5127,1 54010U 22125AY  23230.99964375  .00000651  00000-0  58970-4 0  9999,2 54010  53.2158  75.1919 0001071  93.0825 267.0290 15.08841165 48708,6917.877,95.437,540.483,539.001,0.0
54010.0,STARLINK-5127,PAYLOAD,2023-08-20 18:54:54,15.08841365,0.0001033,53.2168,67.1626,96.9364,263.1746,0.00010259,1.345e-05,0.0,0 STARLINK-5127,1 54010U 22125AY  23232.78812669  .00001345  00000-0  10259-3 0  9994,2 54010  53.2168  67.1626 0001033  96.9364 263.1746 15.08841365 48977,6917.876,95.437,540.456,539.027,0.0
54010.0,STARLINK-5127,PAYLOAD,2023-08-21 06:02:36,15.08836576,0.0001035,53.2174,65.0807,94.2906,265.8205,0.00010069,1.315e-05,0.0,0 STARLINK-5127,1 54010U 22125AY  23233.25181104  .00001315  00000-0  10069-3 0  9996,2 54010  53.2174  65.0807 0001035  94.2906 265.8205 15.08836576 49043,6917.891,95.438,540.472,539.04,0.0
54010.0,STARLINK-5127,PAYLOAD,2023-08-21 23:31:50,15.08847551,0.0001055,53.217,61.8105,91.5484,268.5629,0.00019844,2.872e-05,0.0,0 STARLINK-5127,1 54010U 22125AY  23233.98044487  .00002872  00000-0  19844-3 0  9997,2 54010  53.2170  61.8105 0001055  91.5484 268.5629 15.08847551 49154,6917.857,95.437,540.452,538.992,0.0
54010.0,STARLINK-5127,PAYLOAD,2023-08-22 12:14:55,15.08843793,0.000147,53.2172,59.4313,101.5132,258.6025,8.8156e-05,1.115e-05,0.0,0 STARLINK-5127,1 54010U 22125AY  23234.51036838  .00001115  00000-0  88156-4 0  9990,2 54010  53.2172  59.4313 0001470 101.5132 258.6025 15.08843793 49236,6917.869,95.437,540.751,538.717,0.0
54010.0,STARLINK-5127,PAYLOAD,2023-08-23 12:05:43,15.08839621,0.0001356,53.2161,54.9762,67.4704,292.6432,0.00010787,1.429e-05,0.0,0 STARLINK-5127,1 54010U 22125AY  23235.50397179  .00001429  00000-0  10787-3 0  9990,2 54010  53.2161  54.9762 0001356  67.4704 292.6432 15.08839621 49381,6917.882,95.438,540.685,538.808,0.0
54010.0,STARLINK-5127,PAYLOAD,2023-08-24 15:07:16,15.08838293,0.0001031,53.2175,49.913,125.7472,234.3616,6.6595e-07,-2.77e-06,0.0,0 STARLINK-5127,1 54010U 22125AY  23236.63005275 -.00000277  00000-0  66595-6 0  9990,2 54010  53.2175  49.9130 0001031 125.7472 234.3616 15.08838293 49559,6917.886,95.438,540.464,539.037,0.0
54010.0,STARLINK-5127,PAYLOAD,2023-08-25 11:47:18,15.08813938,0.0001244,53.2177,46.0465,140.0551,220.0533,0.00044259,6.758e-05,0.0,0 STARLINK-5127,1 54010U 22125AY  23237.49118302  .00006758  00000-0  44259-3 0  9990,2 54010  53.2177  46.0465 0001244 140.0551 220.0533 15.08813938 49632,6917.96,95.439,540.686,538.964,0.0
54010.0,STARLINK-5127,PAYLOAD,2023-08-25 18:08:50,15.08812578,0.0001253,53.218,44.8577,106.5669,253.546,0.00048549,7.441e-05,0.0,0 STARLINK-5127,1 54010U 22125AY  23237.75614011  .00007441  00000-0  48549-3 0  9993,2 54010  53.2180  44.8577 0001253 106.5669 253.5460 15.08812578 49722,6917.964,95.439,540.696,538.962,0.0
54010.0,STARLINK-5127,PAYLOAD,2023-08-26 13:13:27,15.08838283,0.0001127,53.218,41.29,89.2771,270.835,9.8179e-05,1.275e-05,0.0,0 STARLINK-5127,1 54010U 22125AY  23238.55101403  .00001275  00000-0  98179-4 0  9992,2 54010  53.2180  41.2900 0001127  89.2771 270.8350 15.08838283 49792,6917.886,95.438,540.53,538.971,0.0
54010.0,STARLINK-5127,PAYLOAD,2023-08-26 16:24:13,15.08841237,0.0001113,53.2177,40.6959,89.6148,270.4971,0.00012053,1.631e-05,0.0,0 STARLINK-5127,1 54010U 22125AY  23238.68349185  .00001631  00000-0  12053-3 0  9999,2 54010  53.2177  40.6959 0001113  89.6148 270.4971 15.08841237 49868,6917.877,95.437,540.512,538.972,0.0
54010.0,STARLINK-5127,PAYLOAD,2023-08-27 17:50:23,15.08844047,0.0001092,53.2184,35.9382,85.2177,274.894,0.00010249,1.344e-05,0.0,0 STARLINK-5127,1 54010U 22125AY  23239.74333180  .00001344  00000-0  10249-3 0  9991,2 54010  53.2184  35.9382 0001092  85.2177 274.8940 15.08844047 50029,6917.868,95.437,540.488,538.978,0.0
54010.0,STARLINK-5127,PAYLOAD,2023-08-28 03:22:43,15.08839691,0.000106,53.2186,34.1544,83.7764,276.3349,4.8736e-05,4.88e-06,0.0,0 STARLINK-5127,1 54010U 22125AY  23240.14077573  .00000488  00000-0  48736-4 0  9999,2 54010  53.2186  34.1544 0001060  83.7764 276.3349 15.08839691 50087,6917.881,95.438,540.48,539.013,0.0
54010.0,STARLINK-5127,PAYLOAD,2023-08-28 19:16:34,15.08845253,0.0001107,53.2179,31.1822,88.6286,271.4833,6.9949e-05,8.26e-06,0.0,0 STARLINK-5127,1 54010U 22125AY  23240.80317217  .00000826  00000-0  69949-4 0  9999,2 54010  53.2179  31.1822 0001107  88.6286 271.4833 15.08845253 50131,6917.864,95.437,540.495,538.964,0.0
54010.0,STARLINK-5127,PAYLOAD,2023-08-29 03:13:30,15.08835525,0.0001274,53.2188,29.6924,84.8616,275.2521,3.8805e-05,3.3e-06,0.0,0 STARLINK-5127,1 54010U 22125AY  23241.13438003  .00000330  00000-0  38805-4 0  9990,2 54010  53.2188  29.6924 0001274  84.8616 275.2521 15.08835525 50234,6917.894,95.438,540.64,538.878,0.0
54010.0,STARLINK-5127,PAYLOAD,2023-08-29 17:31:58,15.08843849,0.0001115,53.2185,27.0174,81.9424,278.1695,5.5607e-05,5.97e-06,0.0,0 STARLINK-5127,1 54010U 22125AY  23241.73053474  .00000597  00000-0  55607-4 0  9995,2 54010  53.2185  27.0174 0001115  81.9424 278.1695 15.08843849 50321,6917.869,95.437,540.505,538.962,0.0
54010.0,STARLINK-5127,PAYLOAD,2023-08-30 15:47:22,15.08843956,0.000115,53.2183,22.8556,84.3654,275.7469,6.2329e-05,7.04e-06,0.0,0 STARLINK-5127,1 54010U 22125AY  23242.65789454  .00000704  00000-0  62329-4 0  9990,2 54010  53.2183  22.8556 0001150  84.3654 275.7469 15.08843956 50418,6917.868,95.437,540.529,538.938,0.0
54010.0,STARLINK-5127,PAYLOAD,2023-08-31 02:55:03,15.08854248,0.0001203,53.219,20.7737,105.3035,254.8091,1.7059e-05,-1.6e-07,0.0,0 STARLINK-5127,1 54010U 22125AY  23243.12156771 -.00000016  00000-0  17059-4 0  9990,2 54010  53.2190  20.7737 0001203 105.3035 254.8091 15.08854248 50538,6917.837,95.437,540.534,538.87,0.0
54010.0,STARLINK-5127,PAYLOAD,2023-08-31 12:27:23,15.08833146,0.0001063,53.2182,18.9899,86.7757,273.3356,1.5667e-05,-3.8e-07,0.0,0 STARLINK-5127,1 54010U 22125AY  23243.51902231 -.00000038  00000-0  15667-4 0  9990,2 54010  53.2182  18.9899 0001063  86.7757 273.3356 15.08833146 50594,6917.901,95.438,540.502,539.031,0.0
54010.0,STARLINK-5127,PAYLOAD,2023-09-01 12:18:09,15.0882852,0.000199,53.2174,14.5355,13.8423,346.2623,0.00079013,0.00012305,0.0,0 STARLINK-5127,1 54010U 22125AY  23244.51261117  .00012305  00000-0  79013-3 0  9995,2 54010  53.2174  14.5355 0001990  13.8423 346.2623 15.08828520 50692,6917.915,95.438,541.157,538.404,0.0
54010.0,STARLINK-5127,PAYLOAD,2023-09-01 18:39:41,15.08854223,0.0001247,53.218,13.3407,80.1264,279.9869,3.3854e-05,2.51e-06,0.0,0 STARLINK-5127,1 54010U 22125AY  23244.77756944  .00000251  00000-0  33854-4 0  9991,2 54010  53.2180  13.3407 0001247  80.1264 279.9869 15.08854223 50782,6917.837,95.437,540.565,538.839,0.0
54010.0,STARLINK-5127,PAYLOAD,2023-09-02 08:58:11,15.08834428,0.00012,53.2183,10.6632,105.1048,255.0077,6.267e-05,7.1e-06,0.0,0 STARLINK-5127,1 54010U 22125AY  23245.37374140  .00000710  00000-0  62670-4 0  9990,2 54010  53.2183  10.6632 0001200 105.1048 255.0077 15.08834428 50873,6917.897,95.438,540.593,538.932,0.0
54010.0,STARLINK-5127,PAYLOAD,2023-09-02 12:08:57,15.08837215,0.0001082,53.2184,10.0702,87.2744,272.8372,0.00010892,1.446e-05,0.0,0 STARLINK-5127,1 54010U 22125AY  23245.50621939  .00001446  00000-0  10892-3 0  9991,2 54010  53.2184  10.0702 0001082  87.2744 272.8372 15.08837215 50846,6917.889,95.438,540.502,539.005,0.0
54010.0,STARLINK-5127,PAYLOAD,2023-09-02 15:19:43,15.08846217,0.0001061,53.2188,9.476,89.5029,270.6085,0.00012419,1.69e-05,0.0,0 STARLINK-5127,1 54010U 22125AY  23245.63869302  .00001690  00000-0  12419-3 0  9991,2 54010  53.2188   9.4760 0001061  89.5029 270.6085 15.08846217 50911,6917.861,95.437,540.46,538.992,0.0
54010.0,STARLINK-5127,PAYLOAD,2023-09-03 10:24:21,15.08841303,0.0001476,53.2178,5.9072,88.2689,271.8473,-4.3696e-05,-9.83e-06,0.0,0 STARLINK-5127,1 54010U 22125AY  23246.43358173 -.00000983  00000-0 -43696-4 0  9997,2 54010  53.2178   5.9072 0001476  88.2689 271.8473 15.08841303 50987,6917.876,95.437,540.762,538.72,0.0
54010.0,STARLINK-5127,PAYLOAD,2023-09-04 00:42:49,15.08837383,0.0001522,53.218,3.2327,94.6887,265.4279,1.9068e-05,1.5e-07,0.0,0 STARLINK-5127,1 54010U 22125AY  23247.02974211  .00000015  00000-0  19068-4 0  9990,2 54010  53.2180   3.2327 0001522  94.6887 265.4279 15.08837383 51120,6917.888,95.438,540.806,538.7,0.0
54010.0,STARLINK-5127,PAYLOAD,2023-09-04 10:15:09,15.08824771,0.0001244,53.2186,1.4476,88.8374,271.2761,-4.2058e-05,-9.57e-06,0.0,0 STARLINK-5127,1 54010U 22125AY  23247.42719375 -.00000957  00000-0 -42058-4 0  9994,2 54010  53.2186   1.4476 0001244  88.8374 271.2761 15.08824771 51137,6917.927,95.439,540.653,538.931,0.0
